1 45706U 20035BB  22365.30842898  .00004998  00000-0  35432-3 0  9992
2 45706  53.0539 223.7267 0001271  84.4454 275.6680 15.06389003143645
1 45706U 20035BB  22365.30842898  .00004998  00000-0  35432-3 0  9992
2 45706  53.0539 223.7267 0001271  84.4454 275.6680 15.06389003143241
1 45706U 20035BB  23001.30363744 -.00000579  00000-0 -19954-4 0  9993
2 45706  53.0544 219.2586 0001344  81.7860 278.3282 15.06391441143790
1 45706U 20035BB  23001.30363744 -.00000579  00000-0 -19954-4 0  9993
2 45706  53.0544 219.2586 0001344  81.7860 278.3282 15.06391441143396
1 45706U 20035BB  23001.70172880 -.00002968  00000-0 -18053-3 0  9998
2 45706  53.0545 217.4721 0001376  84.7757 275.3389 15.06385483143856
1 45706U 20035BB  23001.70172880 -.00002968  00000-0 -18053-3 0  9998
2 45706  53.0545 217.4721 0001376  84.7757 275.3389 15.06385483143452
1 45706U 20035BB  23002.63058727 -.00001008  00000-0 -48790-4 0  9990
2 45706  53.0549 213.3026 0001372  85.4648 274.6498 15.06385658143998
1 45706U 20035BB  23002.82961969 -.00006568  00000-0 -42231-3 0  9991
2 45706  53.0550 212.4090 0001534  77.7394 282.3767 15.06412627144020
1 45706U 20035BB  23002.82961969 -.00006568  00000-0 -42231-3 0  9991
2 45706  53.0550 212.4090 0001534  77.7394 282.3767 15.06412627143625
1 45706U 20035BB  23003.02867264  .00000065  00000-0  23297-4 0  9993
2 45706  53.0544 211.5151 0001377  83.8016 276.3129 15.06380627143652
1 45706U 20035BB  23003.55945010  .00000734  00000-0  68203-4 0  9996
2 45706  53.0546 209.1330 0001327  82.1207 277.9933 15.06383304144134
1 45706U 20035BB  23004.28926952  .00001787  00000-0  13887-3 0  9997
2 45706  53.0543 205.8560 0001294  83.4481 276.6656 15.06386241144243
1 45706U 20035BB  23004.28926952  .00001787  00000-0  13887-3 0  9997
2 45706  53.0543 205.8560 0001294  83.4481 276.6656 15.06386241143848
1 45706U 20035BB  23004.82004406  .00001780  00000-0  13841-3 0  9991
2 45706  53.0540 203.4730 0001312  84.1202 275.9937 15.06391671144329
1 45706U 20035BB  23004.95273704  .00001729  00000-0  13495-3 0  9992
2 45706  53.0541 202.8774 0001321  83.6493 276.4647 15.06393843143941
1 45706U 20035BB  23005.54987271 -.00000110  00000-0  11500-4 0  9999
2 45706  53.0541 200.1968 0001300  88.9053 271.2085 15.06384000144433
1 45706U 20035BB  23005.81524910  .00001768  00000-0  13757-3 0  9990
2 45706  53.0541 199.0055 0001040  82.3770 277.7337 15.06398291144473
1 45706U 20035BB  23006.21332665  .00001987  00000-0  15224-3 0  9993
2 45706  53.0542 197.2185 0001147  83.9758 276.1361 15.06403484144133
1 45706U 20035BB  23006.94313448  .00002193  00000-0  16599-3 0  9997
2 45706  53.0542 193.9422 0001147  83.9481 276.1639 15.06411174144642
1 45706U 20035BB  23007.60660226  .00001151  00000-0  96094-4 0  9992
2 45706  53.0542 190.9638 0001050  84.0546 276.0562 15.06411825144349
1 45706U 20035BB  23007.87199161  .00000388  00000-0  44891-4 0  9995
2 45706  53.0544 189.7725 0001060  83.7478 276.3631 15.06407344144784
1 45706U 20035BB  23008.53545337  .00000128  00000-0  27474-4 0  9999
2 45706  53.0545 186.7937 0001085  86.0608 274.0505 15.06410101144886
1 45706U 20035BB  23008.53545337  .00000128  00000-0  27474-4 0  9999
2 45706  53.0545 186.7937 0001085  86.0608 274.0505 15.06410101144482
1 45706U 20035BB  23008.86718200  .00000376  00000-0  44144-4 0  9994
2 45706  53.0545 185.3043 0001093  84.8255 275.2858 15.06413717144938
1 45706U 20035BB  23009.46430254  .00000419  00000-0  47047-4 0  9994
2 45706  53.0523 182.6248 0001645  85.3022 274.8155 15.06409204145024
1 45706U 20035BB  23009.72969030  .00000711  00000-0  66636-4 0  9992
2 45706  53.0530 181.4323 0001737  89.0719 271.0469 15.06405376144661
1 45706U 20035BB  23009.86238866  .00000049  00000-0  22168-4 0  9999
2 45706  53.0535 180.8370 0001418  86.8082 273.3069 15.06398507145080
1 45706U 20035BB  23010.19411933  .00000164  00000-0  29917-4 0  9992
2 45706  53.0538 179.3478 0001358  82.9781 277.1362 15.06401964145137
1 45706U 20035BB  23010.72489235 -.00000164  00000-0  78982-5 0  9999
2 45706  53.0536 176.9644 0001403  83.4857 276.6292 15.06401927145218
1 45706U 20035BB  23010.72489235 -.00000164  00000-0  78982-5 0  9999
2 45706  53.0536 176.9644 0001403  83.4857 276.6292 15.06401927144813
1 45706U 20035BB  23011.18931875 -.00003402  00000-0 -20952-3 0  9993
2 45706  53.0537 174.8800 0001401  78.5276 281.5870 15.06411863145282
1 45706U 20035BB  23011.78643406  .00001557  00000-0  12335-3 0  9992
2 45706  53.0541 172.1992 0001399  80.2583 279.8564 15.06406906145379
1 45706U 20035BB  23011.78643406  .00001557  00000-0  12335-3 0  9992
2 45706  53.0541 172.1992 0001399  80.2583 279.8564 15.06406906144974
1 45706U 20035BB  23012.78163808  .00001455  00000-0  11656-3 0  9998
2 45706  53.0546 167.7317 0001157  76.6712 283.4406 15.06399877145521
1 45706U 20035BB  23012.78163808  .00001455  00000-0  11656-3 0  9998
2 45706  53.0546 167.7317 0001157  76.6712 283.4406 15.06399877145127
1 45706U 20035BB  23013.51146913  .00001344  00000-0  10918-3 0  9995
2 45706  53.0542 164.4553 0001299  80.0858 280.0278 15.06380011145632
1 45706U 20035BB  23013.77684572 -.00001900  00000-0 -10867-3 0  9994
2 45706  53.0540 163.2644 0001146  78.2324 281.8793 15.06406038145679
1 45706U 20035BB  23013.77684572 -.00001900  00000-0 -10867-3 0  9994
2 45706  53.0540 163.2644 0001146  78.2324 281.8793 15.06406038145275
1 45706U 20035BB  23014.10858890 -.00001050  00000-0 -51597-4 0  9990
2 45706  53.0551 161.7738 0001269  77.0571 283.0560 15.06390522145323
1 45706U 20035BB  23014.83840161  .00001633  00000-0  12852-3 0  9997
2 45706  53.0547 158.4981 0001255  77.8735 282.2394 15.06391405145435
1 45706U 20035BB  23015.56822862 -.00000918  00000-0 -42740-4 0  9993
2 45706  53.0567 155.2188 0001023  75.7776 284.3326 15.06390180145949
1 45706U 20035BB  23015.63457024  .00001008  00000-0  86553-4 0  9994
2 45706  53.0549 154.9242 0001284  68.7987 291.3139 15.06395692145955
1 45706U 20035BB  23016.09900049  .00001905  00000-0  14677-3 0  9998
2 45706  53.0545 152.8394 0001313  79.6644 280.4493 15.06392739145625
1 45706U 20035BB  23016.62977558  .00001813  00000-0  14058-3 0  9997
2 45706  53.0546 150.4564 0001214  83.3495 276.7633 15.06394415146106
1 45706U 20035BB  23016.69611476  .00001700  00000-0  13296-3 0  9996
2 45706  53.0552 150.1571 0001132  91.0980 269.0139 15.06405035146110
1 45706U 20035BB  23016.69611476  .00001700  00000-0  13296-3 0  9996
2 45706  53.0552 150.1571 0001132  91.0980 269.0139 15.06405035145715
1 45706U 20035BB  23017.09419959 -.00000578  00000-0 -19962-4 0  9994
2 45706  53.0539 148.3723 0000511 135.2528 224.8502 15.06399230145775
1 45706U 20035BB  23017.62498800 -.00000575  00000-0 -19731-4 0  9996
2 45706  53.0544 145.9900 0001173  87.4804 272.6319 15.06390831146250
1 45706U 20035BB  23017.62498800 -.00000575  00000-0 -19731-4 0  9996
2 45706  53.0544 145.9900 0001173  87.4804 272.6319 15.06390831145855
1 45706U 20035BB  23018.35479554  .00001058  00000-0  89928-4 0  9992
2 45706  53.0544 142.7153 0001034  74.4884 285.6219 15.06399227145963
1 45706U 20035BB  23018.62017390  .00002314  00000-0  17414-3 0  9994
2 45706  53.0542 141.5241 0001014  77.5580 282.5523 15.06409156146408
1 45706U 20035BB  23018.62017390  .00002314  00000-0  17414-3 0  9994
2 45706  53.0542 141.5241 0001014  77.5580 282.5523 15.06409156146004
1 45706U 20035BB  23019.01825958 -.00000125  00000-0  10490-4 0  9992
2 45706  53.0554 139.7352 0001176  78.8211 281.2910 15.06406093146062
1 45706U 20035BB  23019.28365346  .00001841  00000-0  14246-3 0  9998
2 45706  53.0554 138.5483 0000989  70.9674 289.1422 15.06392162146102
1 45706U 20035BB  23019.48269979  .00000563  00000-0  56724-4 0  9993
2 45706  53.0536 137.6522 0001278  88.9415 271.1720 15.06388265146538
1 45706U 20035BB  23020.47789907 -.00000875  00000-0 -39900-4 0  9997
2 45706  53.0542 133.1847 0001014 105.5217 254.5884 15.06398533146681
1 45706U 20035BB  23020.47789907 -.00000875  00000-0 -39900-4 0  9997
2 45706  53.0542 133.1847 0001014 105.5217 254.5884 15.06398533146287
1 45706U 20035BB  23021.00866635 -.00001089  00000-0 -54216-4 0  9996
2 45706  53.0553 130.8009 0000955  85.7177 274.3921 15.06407559146360
1 45706U 20035BB  23021.47312209 -.00001475  00000-0 -80216-4 0  9998
2 45706  53.0541 128.7175 0000946  89.6686 270.4411 15.06373374146431
1 45706U 20035BB  23021.67215453 -.00000886  00000-0 -40632-4 0  9996
2 45706  53.0552 127.8209 0001054  85.8976 274.2133 15.06387939146460
1 45706U 20035BB  23022.40195649  .00002166  00000-0  16423-3 0  9993
2 45706  53.0542 124.5482 0000915  90.2664 269.8430 15.06401659146573
1 45706U 20035BB  23022.60098170  .00003391  00000-0  24630-3 0  9996
2 45706  53.0551 123.6515 0001004  87.9256 272.1848 15.06422042146603
1 45706U 20035BB  23022.99907452  .00001176  00000-0  97815-4 0  9995
2 45706  53.0553 121.8659 0000995  89.7147 270.3955 15.06405068146665
1 45706U 20035BB  23023.39717062  .00002048  00000-0  15639-3 0  9998
2 45706  53.0546 120.0806 0000727  90.0879 270.0193 15.06380018146727
1 45706U 20035BB  23024.45870901 -.00001336  00000-0 -70768-4 0  9994
2 45706  53.0545 115.3117 0001118 111.3684 248.7425 15.06409125146882
1 45706U 20035BB  23025.52026886  .00000998  00000-0  85887-4 0  9997
2 45706  53.0548 110.5480 0001054  93.5170 266.5939 15.06389309147447
1 45706U 20035BB  23025.52026886  .00000998  00000-0  85887-4 0  9997
2 45706  53.0548 110.5480 0001054  93.5170 266.5939 15.06389309147043
1 45706U 20035BB  23026.44912073  .00001004  00000-0  86281-4 0  9999
2 45706  53.0553 106.3774 0001270  82.5046 277.6087 15.06401445147580
1 45706U 20035BB  23026.44912073  .00001004  00000-0  86281-4 0  9999
2 45706  53.0553 106.3774 0001270  82.5046 277.6087 15.06401445147186
1 45706U 20035BB  23027.17894219  .00001164  00000-0  97053-4 0  9997
2 45706  53.0549 103.1029 0001608  98.7160 261.4011 15.06391448147291
1 45706U 20035BB  23027.51067634  .00001319  00000-0  10744-3 0  9991
2 45706  53.0549 101.6135 0001575  97.7653 262.3515 15.06392464147749
1 45706U 20035BB  23027.90875653  .00000564  00000-0  56744-4 0  9994
2 45706  53.0557  99.8274 0001217  92.1194 267.9934 15.06395816147809
1 45706U 20035BB  23028.50587633 -.00000320  00000-0 -25661-5 0  9996
2 45706  53.0552  97.1458 0001248 104.7309 255.3818 15.06400637147890
1 45706U 20035BB  23028.50587633 -.00000320  00000-0 -25661-5 0  9996
2 45706  53.0552  97.1458 0001248 104.7309 255.3818 15.06400637147496
1 45706U 20035BB  23028.90395929 -.00000265  00000-0  11009-5 0  9993
2 45706  53.0556  95.3597 0001264  76.7938 283.3192 15.06398479147955
1 45706U 20035BB  23029.03665576  .00000392  00000-0  45180-4 0  9992
2 45706  53.0547  94.7625 0001192  78.7051 281.4072 15.06391411147571
1 45706U 20035BB  23029.89916039  .00000729  00000-0  67857-4 0  9998
2 45706  53.0550  90.8900 0001088  83.8722 276.2391 15.06397738148108
1 45706U 20035BB  23029.96550829  .00001005  00000-0  86349-4 0  9992
2 45706  53.0549  90.5926 0001255  74.1898 285.9230 15.06396725147714
1 45706U 20035BB  23030.42993318  .00001219  00000-0  10071-3 0  9994
2 45706  53.0548  88.5077 0001208  77.4466 282.6658 15.06399977148184
1 45706U 20035BB  23031.15975499  .00000181  00000-0  31015-4 0  9994
2 45706  53.0550  85.2307 0001142  80.1900 279.9218 15.06391466147891
1 45706U 20035BB  23031.22610034  .00000530  00000-0  54460-4 0  9990
2 45706  53.0551  84.9335 0001178  77.4018 282.7103 15.06393739148304
